{
  "norad_id": 68371,
  "name": "RASSVET-3 12",
  "history": [
    {
      "epoch": "2026-03-31T15:45:33.283872Z",
      "apogee_km": 323.51307918822476,
      "perigee_km": 288.08154340404326,
      "latitude_deg": -6.283766716530951e-06,
      "longitude_deg": 34.2907388295471,
      "height_km": 296.26965617662216,
      "semi_major_axis_km": 6683.934311296133,
      "eccentricity": 0.0026505,
      "inclination_deg": 82.297,
      "raan_deg": 99.7103,
      "arg_perigee_deg": 44.4421,
      "mean_anomaly_deg": 315.897,
      "mean_motion_rev_day": 15.88746118
    }
  ]
}